[
    {
        "Altitude(m)": 605470.7339979935,
        "Argument of Periapsis(deg)": 0.0,
        "Eccentricity": 0.0,
        "Inclination(deg)": 60.0,
        "Latitude(deg)": 27.9880243183252,
        "Longitude(deg)": -77.73706454464467,
        "Mean Anomaly(deg)": -212.7273,
        "RAAN(deg)": 220.00000000000003,
        "Satellite Name": "Test1 977",
        "Satellite Number": 977,
        "Semi-Major Axis(m)": 6980739.136638005,
        "Time(s)": 0
    },
    {
        "Altitude(m)": 605395.7726128394,
        "Argument of Periapsis(deg)": 0.00010418945913296404,
        "Eccentricity": 0.0,
        "Inclination(deg)": 60.0,
        "Latitude(deg)": 27.473715137619234,
        "Longitude(deg)": -77.38387709349792,
        "Mean Anomaly(deg)": -212.10719385453817,
        "RAAN(deg)": 219.99957995086027,
        "Satellite Name": "Test1 977",
        "Satellite Number": 977,
        "Semi-Major Axis(m)": 6980739.136638005,
        "Time(s)": 10
    }
]